8P/Tuttle,e,54.9125,270.2072,207.4964,5.700563,0.0724148,0.81996535,319.0951,02/10.0/2020,2000,g  9.0,4.0
# From MPEC 2019-JE2
9P/Tempel,e,10.4732,68.7371,179.3046,3.147410,0.1765120,0.50955817,226.9660,02/10.0/2020,2000,g  9.0,4.0
# From MPC114607
10P/Tempel,e,12.0396,117.8080,195.5058,3.060893,0.1840483,0.53841578,284.8489,02/10.0/2020,2000,g  5.0,10.0
# From MPEC 2017-L52
11P/Tempel-Swift-LINEAR,e,14.4239,238.9465,167.8654,3.285668,0.1654888,0.57718376,311.9858,02/10.0/2020,2000,g  9.0,4.0
# From  27, 604
12P/Pons-Brooks,e,74.0645,255.7006,199.0656,17.06575,0.0139803,0.95426435,338.5774,02/10.0/2020,2000,g  5.0,6.0
# From  27, 604
13P/Olbers,e,44.6273,85.8392,64.5875,16.66222,0.0144912,0.92977876,336.7656,02/10.0/2020,2000,g  5.0,6.0
# From MPC100283
14P/Wolf,e,27.9002,202.0908,158.9823,4.259592,0.1121120,0.35646283,89.6913,02/10.0/2020,2000,g  5.5,12.0
# From MPC 92276
15P/Finlay,e,6.7973,13.7209,347.8429,3.503637,0.1502884,0.71688462,281.9044,02/10.0/2020,2000,g 12.0,4.0
# From MPC 92276
16P/Brooks,e,3.0067,138.9451,245.1391,3.660470,0.1407339,0.48777309,299.0871,02/10.0/2020,2000,g  7.5,10.0
# From MPC114607
17P/Holmes,e,19.0230,326.6524,24.5587,3.635967,0.1421589,0.42824050,306.5415,02/10.0/2020,2000,g 10.0,6.0
# From MPC 92984
19P/Borrelly,e,29.6145,74.5742,351.8007,3.600875,0.1442421,0.63968120,255.8643,02/10.0/2020,2000,g  4.5,10.0
# From MPC111773
21P/Giacobini-Zinner,e,32.0049,195.3743,172.8487,3.496417,0.1507541,0.71052585,78.0435,02/10.0/2020,2000,g  9.0,6.0
# From MPC 94283
22P/Kopff,e,4.7415,120.8360,162.9429,3.443534,0.1542402,0.54883103,241.7048,02/10.0/2020,2000,g  3.0,10.4
# From MPC 14747
23P/Brorsen-Metcalf,e,19.1572,312.3237,128.9186,16.95707,0.0141149,0.97092700,0.0000,08/16.7555/1989,2000,g 10.0,6.0
# From MPC110085
24P/Schaumasse,e,11.7214,79.5555,57.7241,4.067713,0.1201375,0.70735742,97.8199,02/10.0/2020,2000,g  6.5,14.0
# From MPC 94674
26P/Grigg-Skjellerup,e,22.4472,211.5355,2.1938,3.013764,0.1883824,0.64076931,93.4866,02/10.0/2020,2000,g 12.0,16.0
# From MPC 78188
27P/Crommelin,e,29.1148,250.5746,196.0124,9.192614,0.0353627,0.91791941,110.3910,02/10.0/2020,2000,g 12.0,8.0
# From MPC114607
28P/Neujmin,e,14.3114,346.3459,347.4378,6.968788,0.0535757,0.77358008,338.7854,02/10.0/2020,2000,g  8.5,6.0
# From MPEC 2019-VB6
29P/Schwassmann-Wachmann,e,9.3671,312.3816,48.0456,6.030909,0.0665472,0.04375791,22.3355,02/10.0/2020,2000,g  4.0,4.0
# From MPC110085
30P/Reinmuth,e,8.3305,119.0194,13.0518,3.743621,0.1360712,0.51290991,122.3516,02/10.0/2020,2000,g  9.5,6.0
# From MPC108597
31P/Schwassmann-Wachmann,e,4.5473,114.1130,18.3177,4.242581,0.1127870,0.19263781,24.7094,02/10.0/2020,2000,g  5.0,8.0
# From MPC 92276
32P/Comas Sola,e,9.9407,57.6303,53.3240,4.498295,0.1033076,0.55694892,200.7197,02/10.0/2020,2000,g  6.5,8.0
# From MPEC 2013-O31
33P/Daniel,e,22.3539,66.3695,20.6444,4.080320,0.1195812,0.45342848,152.2120,02/10.0/2020,2000,g 10.0,12.0
# From  15, 452
35P/Herschel-Rigollet,e,64.538,356.268,29.122,28.5697,0.006454,0.9733608,0.000,12/25.2307/2091,2000,g  9.0,4.0
# From MPC105240
36P/Whipple,e,9.9529,181.8638,200.7631,4.129841,0.1174368,0.26833941,346.8939,02/10.0/2020,2000,g  8.5,6.0
# From MPEC 2018-HA5
37P/Forbes,e,8.9565,314.5689,330.0590,3.458697,0.1532270,0.53416691,99.1028,02/10.0/2020,2000,g 10.5,4.8
# From MPEC 2018-S50
38P/Stephan-Oterma,e,18.3535,77.9970,359.5592,11.26585,0.0260650,0.85902631,11.8876,02/10.0/2020,2000,g  3.5,12.0
# From MPC115887
39P/Oterma,e,1.5612,299.2555,94.8337,7.410819,0.0488545,0.22362284,302.0422,02/10.0/2020,2000,g  7.0,6.0
# From MPC100283
40P/Vaisala,e,11.4715,133.7908,47.4633,4.949887,0.0894976,0.63023293,171.3009,02/10.0/2020,2000,g  5.5,12.0
# From MPC105240
41P/Tuttle-Giacobini-Kresak,e,9.2217,141.0066,62.2580,3.085706,0.1818328,0.66047144,187.9482,02/10.0/2020,2000,g 10.0,16.0
# From MPC 94283
42P/Neujmin,e,3.9882,150.2022,147.1462,4.873068,0.0916221,0.58537974,161.8713,02/10.0/2020,2000,g 13.0,6.0
# From MPC102956
43P/Wolf-Harrington,e,9.4637,244.6779,223.8709,4.299574,0.1105518,0.44198928,138.6200,02/10.0/2020,2000,g  8.0,6.0
# From MPC 89313
44P/Reinmuth,e,5.8982,286.4818,58.1240,3.688979,0.1391057,0.42694201,248.1944,02/10.0/2020,2000,g  8.3,6.0
# From MPC103849
45P/Honda-Mrkos-Pajdusakova,e,4.3261,87.6951,327.9821,3.049312,0.1850978,0.81784124,210.8632,02/10.0/2020,2000,g 13.5,8.0
# From MPC114607
46P/Wirtanen,e,11.7448,82.1536,356.3678,3.091908,0.1812860,0.65850432,76.8876,02/10.0/2020,2000,g 14.0,6.0
# From NK 2718
47P/Ashbrook-Jackson,e,13.0320,356.9347,357.6059,4.125717,0.1176129,0.31769450,114.6460,02/10.0/2020,2000,g  9.0,4.0
# From MPEC 2015-M77
48P/Johnson,e,12.2078,110.1271,216.6059,3.500114,0.1505153,0.42726225,82.2787,02/10.0/2020,2000,g  9.0,4.0
# From MPEC 2015-M77
49P/Arend-Rigaux,e,19.0449,118.8018,332.9594,3.569659,0.1461383,0.59894635,83.9828,02/10.0/2020,2000,g  9.0,4.0
# From MPEC 2015-S97
50P/Arend,e,19.0962,355.1537,49.3655,4.089678,0.1191710,0.52847468,174.5874,02/10.0/2020,2000,g  9.5,6.0
# From NK 3013
51P-A/Harrington,e,5.4254,83.6767,269.2330,3.708716,0.1379967,0.54278741,226.8032,02/10.0/2020,2000,g 16.0,8.0
# From NK 3014
51P-A/Harrington,e,5.4247,83.6922,269.1936,3.709740,0.1379396,0.54285921,226.5574,02/10.0/2020,2000,g 10.0,8.0
# From NK 3014
51P-A/Harrington,e,5.4247,83.6922,269.1936,3.709722,0.1379406,0.54285612,226.5604,02/10.0/2020,2000,g 10.0,8.0
# From MPEC 2015-L08
51P-D/Harrington,e,5.4262,83.6822,269.1830,3.708806,0.1379917,0.54280154,226.7993,02/10.0/2020,2000,g 16.0,8.0
# From MPEC 2015-L08
51P-D/Harrington,e,5.4262,83.6812,269.1838,3.708793,0.1379924,0.54280212,226.8043,02/10.0/2020,2000,g 16.0,8.0
# From NK 3013
51P-D/Harrington,e,5.4254,83.6770,269.2326,3.708715,0.1379968,0.54278759,226.8034,02/10.0/2020,2000,g 16.0,8.0
# From NK 3013
51P-D/Harrington,e,5.4254,83.6770,269.2326,3.708715,0.1379968,0.54278773,226.8034,02/10.0/2020,2000,g 16.0,8.0
# From MPC 88330
52P/Harrington-Abell,e,10.2311,336.8378,139.6020,3.861950,0.1298656,0.53964257,281.6446,02/10.0/2020,2000,g 13.5,6.0
# From MPC100283
53P/Van Biesbroeck,e,6.6075,148.8483,134.3676,5.423581,0.0780324,0.55232653,107.7007,02/10.0/2020,2000,g  7.7,4.8
# From MPC 89011
54P/de Vico-Swift-NEAT,e,6.0602,358.8177,1.7686,3.793776,0.1333818,0.42519477,137.4336,02/10.0/2020,2000,g  9.0,4.0
# From MPC 31070
55P/Tempel-Tuttle,e,162.3653,235.4043,172.5534,10.34633,0.0296159,0.90681257,238.1217,02/10.0/2020,2000,g  9.0,4.0
# From MPC101100
56P/Slaughter-Burnham,e,8.1557,345.9771,44.0470,5.073180,0.0862549,0.50657555,112.2909,02/10.0/2020,2000,g  8.5,6.0
# From MPC 98565
57P/du Toit-Neujmin-Delporte,e,2.8499,188.7815,115.1994,3.447589,0.1539681,0.50065945,265.2417,02/10.0/2020,2000,g 12.5,6.0
# From NK 778
58P/Jackson-Neujmin,e,13.1010,159.0656,200.4612,4.082889,0.1194683,0.66260641,347.4501,02/10.0/2020,2000,g  9.0,4.0
# From MPC111774
59P/Kearns-Kwee,e,9.3411,312.8297,127.6467,4.490721,0.1035691,0.47489057,52.9654,02/10.0/2020,2000,g  7.0,6.0
# From MPEC 2015-M77
60P/Tsuchinshan,e,3.6064,267.5828,216.6548,3.513355,0.1496653,0.53761490,63.7102,02/10.0/2020,2000,g  9.0,4.0
# From MPEC 2015-Q71
61P/Shajn-Schaldach,e,5.9990,162.9907,221.9194,3.684316,0.1393698,0.42381357,222.3228,02/10.0/2020,2000,g  6.0,10.0
# From MPC109147
62P/Tsuchinshan,e,9.4667,89.8116,29.7547,3.396795,0.1574345,0.62499632,125.3242,02/10.0/2020,2000,g  8.0,10.0
# From MPC 84320
63P/Wild,e,19.7436,358.0145,169.1637,5.603924,0.0742960,0.64925278,185.6875,02/10.0/2020,2000,g 10.5,6.0
# From MPC111774
64P/Swift-Gehrels,e,8.9500,299.9991,97.1169,4.455955,0.1047835,0.68750414,48.5260,02/10.0/2020,2000,g  9.5,12.0
# From MPC104795
65P/Gunn,e,9.1838,62.0233,213.7483,3.883361,0.1287930,0.24996659,108.8759,02/10.0/2020,2000,g  5.0,6.0
# From MPC109147
66P/du Toit,e,18.6654,21.8824,257.2721,6.060763,0.0660561,0.78697927,41.7339,02/10.0/2020,2000,g  9.0,4.0
# From MPC 89011
67P/Churyumov-Gerasimenko,e,3.9052,37.1553,21.6103,3.450987,0.1537408,0.65348039,263.2252,02/10.0/2020,2000,g 11.0,4.0
# From MPC 75716
68P/Klemola,e,11.1109,175.0822,153.0615,4.948308,0.0895404,0.63747830,8.3234,02/10.0/2020,2000,g 10.0,4.0
# From MPC114607
69P/Taylor,e,22.0330,104.8305,343.5361,3.890381,0.1284446,0.41311510,42.2126,02/10.0/2020,2000,g  9.5,12.0
# From MPC 92276
70P/Kojima,e,6.5982,119.2680,1.8678,3.675019,0.1398990,0.45329843,271.5372,02/10.0/2020,2000,g 11.0,6.0
# From MPC107051
71P/Clark,e,9.4424,59.4413,209.0005,3.138087,0.1772991,0.49424304,169.2337,02/10.0/2020,2000,g  9.8,6.0
# From MPC 89011
72P/Denning-Fujikawa,e,10.9265,26.6912,346.6672,4.311908,0.1100778,0.81788755,225.4231,02/10.0/2020,2000,g 17.5,10.0
# From MPC106348
73P/Schwassmann-Wachmann,e,11.2355,69.6536,199.4305,3.093138,0.1811779,0.68573208,191.9964,02/10.0/2020,2000,g 11.5,6.0
# From MPC106348
73P-T/Schwassmann-Wachmann,e,11.2377,69.6562,199.4119,3.094698,0.1810409,0.68593531,191.8522,02/10.0/2020,2000,g 11.5,6.0
# From MPC102956
74P/Smirnova-Chernykh,e,6.6379,77.0433,89.5285,4.190276,0.1149053,0.15290935,83.7217,02/10.0/2020,2000,g  5.0,6.0
# From MPC118097
76P/West-Kohoutek-Ikemura,e,30.4567,84.1247,0.0196,3.475017,0.1521488,0.53819385,16.2586,02/10.0/2020,2000,g  8.0,12.0
# From MPC100283
77P/Longmore,e,24.3289,14.8038,196.8675,3.619938,0.1431042,0.35261805,195.7293,02/10.0/2020,2000,g  7.0,8.0
# From MPEC 2016-U66
78P/Gehrels,e,6.2485,210.5403,192.6700,3.740498,0.1362417,0.46168894,42.6897,02/10.0/2020,2000,g  9.0,4.0
# From MPC 94675
79P/du Toit-Hartley,e,3.1480,280.5263,281.8247,2.942766,0.1952408,0.61909360,100.4996,02/10.0/2020,2000,g 16.0,4.0
# From MPEC 2014-P41
80P/Peters-Hartley,e,29.9463,259.8222,339.2486,4.024317,0.1220860,0.59920601,233.9657,02/10.0/2020,2000,g  9.0,4.0
# From MPC105241
81P/Wild,e,3.2371,136.1083,41.7225,3.449957,0.1538096,0.53732318,200.0683,02/10.0/2020,2000,g  7.0,6.0
# From MPC 75717
82P/Gehrels,e,1.1284,239.3134,226.9636,4.137829,0.1170969,0.12186137,69.4383,02/10.0/2020,2000,g  5.0,8.0
# From MPC105241
